sat10491
1 10491U 77109A   20046.87164434  .00000079  00000-0  16924-3 0  9999
2 10491  82.9318  23.6588 0016096 150.2531 271.8246 13.17583573 31062
